{
  "norad_id": 68329,
  "name": "STARLINK-37204",
  "history": [
    {
      "epoch": "2026-03-31T16:00:01.999584Z",
      "apogee_km": 328.6483818691904,
      "perigee_km": 327.3447095079091,
      "latitude_deg": -43.25787195603445,
      "longitude_deg": 48.14911291060258,
      "height_km": 343.1066737730874,
      "semi_major_axis_km": 6706.13354568855,
      "eccentricity": 9.72e-05,
      "inclination_deg": 53.1595,
      "raan_deg": 252.6905,
      "arg_perigee_deg": 78.9071,
      "mean_anomaly_deg": 159.6373,
      "mean_motion_rev_day": 15.80863839
    }
  ]
}